ONEWEB-0517             
1 54135U 22138Y   24093.95235344  .00000515  00000+0  12539-2 0  9999
2 54135  87.9093 105.2459 0001991  81.2666 278.8692 13.19723518 70628
ONEWEB-0518             
1 54136U 22138Z   24093.97130843  .00000129  00000+0  29030-3 0  9996
2 54136  87.9101 105.2505 0002009  86.2499 273.8863 13.19725331 70621
ONEWEB-0519             
1 54137U 22138AA  24093.76913528  .00000049  00000+0  89650-4 0  9999
2 54137  87.9093 105.2788 0001829  76.4997 283.6339 13.19725403 70603
ONEWEB-0520             
1 54138U 22138AB  24093.95550116 -.00000107  00000+0 -30045-3 0  9991
2 54138  87.9093 105.2441 0001450  80.8415 279.2882 13.19724836 70618
ONEWEB-0521             
1 54139U 22138AC  24093.76122026  .00000061  00000+0  12036-3 0  9993
2 54139  87.9094 105.2770 0002221  87.1379 273.0008 13.19723594 70534
ONEWEB-0522             
1 54140U 22138AD  24093.74068679  .00000126  00000+0  28353-3 0  9997
2 54140  87.9092 105.2831 0001802  91.6497 268.4842 13.19723962 70574
ONEWEB-0523             
1 54141U 22138AE  24093.88730260  .00000111  00000+0  24091-3 0  9994
2 54141  87.9150  74.6829 0002715  99.1107 261.0333 13.20769406 73001
ONEWEB-0524             
1 54142U 22138AF  24093.95202002  .00000026  00000+0  32830-4 0  9997
2 54142  87.9151  74.6737 0001997 120.8247 239.3083 13.20769617 73014
